IRIDIUM 57              
1 25273U 98019B   24199.75234546  .00000876  00000+0  29925-3 0  9997
2 25273  86.3956 285.3188 0002228  94.1736 265.9715 14.35286609376800
IRIDIUM 63              
1 25286U 98021B   24199.55522263  .00000709  00000+0  23812-3 0  9992
2 25286  86.3978 222.3022 0002093  90.9374 269.2063 14.35833831375816
IRIDIUM 69              
1 25319U 98026A   24199.60381748  .00001077  00000+0  33551-3 0  9991
2 25319  86.3962 236.5751 0004268  69.3774 290.7883 14.40084442374890
IRIDIUM 71              
1 25320U 98026B   24199.59730438  .00000947  00000+0  29212-3 0  9999
2 25320  86.3963 231.3331 0004380 100.8075 259.3617 14.40391460375416
IRIDIUM 73              
1 25344U 98032C   24199.92882709  .00001416  00000+0  35584-3 0  9999
2 25344  86.4445 188.5981 0002860  81.0771 279.0758 14.50634853382089
IRIDIUM 82              
1 25467U 98051A   24199.94092365  .00027840  00000+0  13476-2 0  9993
2 25467  86.3749 271.1685 0126900 107.7116 253.8022 15.11505972373139
